{
  "type": "FeatureCollection",
  "features": [
    {
      "type": "Feature",
      "properties": {
        "norad_id": 40894,
        "name": "GAOFEN-9 01",
        "group": "resource",
        "lat": 64.75273092214738,
        "lon": 6.2221230642308925,
        "alt_km": 596.8368244785279,
        "timestamp": "2025-12-09T16:56:36.237382+00:00",
        "meta_object_name": "GAOFEN-9 01",
        "meta_object_id": "2015-047A",
        "meta_epoch": "2025-12-09T13:24:32.245056",
        "meta_mean_motion": 14.8241087,
        "meta_eccentricity": 0.0028622,
        "meta_inclination": 97.6546,
        "meta_ra_of_asc_node": 22.6516,
        "meta_arg_of_pericenter": 44.3469,
        "meta_mean_anomaly": 316.0031,
        "meta_ephemeris_type": 0,
        "meta_classification_type": "U",
        "meta_norad_cat_id": 40894,
        "meta_element_set_no": 999,
        "meta_rev_at_epoch": 55209,
        "meta_bstar": 0.00026716,
        "meta_mean_motion_dot": 2.104e-05,
        "meta_mean_motion_ddot": 0,
        "tle_line1": "1 40894U 15047A   25343.55870654  .00002104  00000+0  26716-3 0  9990",
        "tle_line2": "2 40894  97.6546  22.6516 0028622  44.3469 316.0031 14.82410870552096"
      },
      "geometry": {
        "type": "Point",
        "coordinates": [
          6.2221230642308925,
          64.75273092214738
        ]
      }
    },
    {
      "type": "Feature",
      "properties": {
        "norad_id": 41026,
        "name": "YAOGAN-28",
        "group": "resource",
        "lat": 58.842005901366086,
        "lon": -46.208129315256386,
        "alt_km": 479.2318975644348,
        "timestamp": "2025-12-09T16:56:36.237392+00:00",
        "meta_object_name": "YAOGAN-28",
        "meta_object_id": "2015-064A",
        "meta_epoch": "2025-12-09T13:15:59.527584",
        "meta_mean_motion": 15.24266083,
        "meta_eccentricity": 0.0012239,
        "meta_inclination": 97.2807,
        "meta_ra_of_asc_node": 121.4354,
        "meta_arg_of_pericenter": 136.4722,
        "meta_mean_anomaly": 223.7484,
        "meta_ephemeris_type": 0,
        "meta_classification_type": "U",
        "meta_norad_cat_id": 41026,
        "meta_element_set_no": 999,
        "meta_rev_at_epoch": 56176,
        "meta_bstar": 0.00050188,
        "meta_mean_motion_dot": 0.00012217,
        "meta_mean_motion_ddot": 0,
        "tle_line1": "1 41026U 15064A   25343.55277231  .00012217  00000+0  50188-3 0  9995",
        "tle_line2": "2 41026  97.2807 121.4354 0012239 136.4722 223.7484 15.24266083561762"
      },
      "geometry": {
        "type": "Point",
        "coordinates": [
          -46.208129315256386,
          58.842005901366086
        ]
      }
    },
    {
      "type": "Feature",
      "properties": {
        "norad_id": 41038,
        "name": "YAOGAN-29",
        "group": "resource",
        "lat": -50.90046727435256,
        "lon": 16.860832341629365,
        "alt_km": 626.9742176527207,
        "timestamp": "2025-12-09T16:56:36.237403+00:00",
        "meta_object_name": "YAOGAN-29",
        "meta_object_id": "2015-069A",
        "meta_epoch": "2025-12-09T12:19:02.366976",
        "meta_mean_motion": 14.82879664,
        "meta_eccentricity": 4.3e-05,
        "meta_inclination": 98.0217,
        "meta_ra_of_asc_node": 6.6743,
        "meta_arg_of_pericenter": 354.5602,
        "meta_mean_anomaly": 5.5606,
        "meta_ephemeris_type": 0,
        "meta_classification_type": "U",
        "meta_norad_cat_id": 41038,
        "meta_element_set_no": 999,
        "meta_rev_at_epoch": 54251,
        "meta_bstar": 0.00017532,
        "meta_mean_motion_dot": 1.366e-05,
        "meta_mean_motion_ddot": 0,
        "tle_line1": "1 41038U 15069A   25343.51322184  .00001366  00000+0  17532-3 0  9996",
        "tle_line2": "2 41038  98.0217   6.6743 0000430 354.5602   5.5606 14.82879664542517"
      },
      "geometry": {
        "type": "Point",
        "coordinates": [
          16.860832341629365,
          -50.90046727435256
        ]
      }
    },
    {
      "type": "Feature",
      "properties": {
        "norad_id": 41167,
        "name": "KENT RIDGE 1",
        "group": "resource",
        "lat": 14.478526264013615,
        "lon": -51.37445126533094,
        "alt_km": 490.4507011062424,
        "timestamp": "2025-12-09T16:56:36.237413+00:00",
        "meta_object_name": "KENT RIDGE 1",
        "meta_object_id": "2015-077B",
        "meta_epoch": "2025-12-09T08:44:52.188288",
        "meta_mean_motion": 15.21595309,
        "meta_eccentricity": 0.0008537,
        "meta_inclination": 14.9788,
        "meta_ra_of_asc_node": 236.1876,
        "meta_arg_of_pericenter": 82.9028,
        "meta_mean_anomaly": 277.2264,
        "meta_ephemeris_type": 0,
        "meta_classification_type": "U",
        "meta_norad_cat_id": 41167,
        "meta_element_set_no": 999,
        "meta_rev_at_epoch": 55212,
        "meta_bstar": 0.0002593,
        "meta_mean_motion_dot": 6.793e-05,
        "meta_mean_motion_ddot": 0,
        "tle_line1": "1 41167U 15077B   25343.36449292  .00006793  00000+0  25930-3 0  9991",
        "tle_line2": "2 41167  14.9788 236.1876 0008537  82.9028 277.2264 15.21595309552128"
      },
      "geometry": {
        "type": "Point",
        "coordinates": [
          -51.37445126533094,
          14.478526264013615
        ]
      }
    },
    {
      "type": "Feature",
      "properties": {
        "norad_id": 41194,
        "name": "GAOFEN-4",
        "group": "resource",
        "lat": 0.014435087168298269,
        "lon": 78.50661103960012,
        "alt_km": 35791.385226095335,
        "timestamp": "2025-12-09T16:56:36.237427+00:00",
        "meta_object_name": "GAOFEN-4",
        "meta_object_id": "2015-083A",
        "meta_epoch": "2025-12-09T12:21:52.127424",
        "meta_mean_motion": 1.00270714,
        "meta_eccentricity": 0.00036,
        "meta_inclination": 0.1623,
        "meta_ra_of_asc_node": 80.6897,
        "meta_arg_of_pericenter": 106.888,
        "meta_mean_anomaly": 182.0998,
        "meta_ephemeris_type": 0,
        "meta_classification_type": "U",
        "meta_norad_cat_id": 41194,
        "meta_element_set_no": 999,
        "meta_rev_at_epoch": 3662,
        "meta_bstar": 0,
        "meta_mean_motion_dot": -3.32e-06,
        "meta_mean_motion_ddot": 0,
        "tle_line1": "1 41194U 15083A   25343.51518666 -.00000332  00000+0  00000+0 0  9998",
        "tle_line2": "2 41194   0.1623  80.6897 0003600 106.8880 182.0998  1.00270714 36627"
      },
      "geometry": {
        "type": "Point",
        "coordinates": [
          78.50661103960012,
          0.014435087168298269
        ]
      }
    },
    {
      "type": "Feature",
      "properties": {
        "norad_id": 41240,
        "name": "JASON-3",
        "group": "resource",
        "lat": -59.18105968483658,
        "lon": 116.01167288294683,
        "alt_km": 1312.0226196627782,
        "timestamp": "2025-12-09T16:56:36.237439+00:00",
        "meta_object_name": "JASON-3",
        "meta_object_id": "2016-002A",
        "meta_epoch": "2025-12-09T11:42:49.767264",
        "meta_mean_motion": 12.87626372,
        "meta_eccentricity": 0.0007132,
        "meta_inclination": 66.0389,
        "meta_ra_of_asc_node": 164.6606,
        "meta_arg_of_pericenter": 270.5889,
        "meta_mean_anomaly": 89.4313,
        "meta_ephemeris_type": 0,
        "meta_classification_type": "U",
        "meta_norad_cat_id": 41240,
        "meta_element_set_no": 999,
        "meta_rev_at_epoch": 46282,
        "meta_bstar": 6.2931e-05,
        "meta_mean_motion_dot": -4.6e-07,
        "meta_mean_motion_ddot": 0,
        "tle_line1": "1 41240U 16002A   25343.48807601 -.00000046  00000+0  62931-4 0  9996",
        "tle_line2": "2 41240  66.0389 164.6606 0007132 270.5889  89.4313 12.87626372462820"
      },
      "geometry": {
        "type": "Point",
        "coordinates": [
          116.01167288294683,
          -59.18105968483658
        ]
      }
    },
    {
      "type": "Feature",
      "properties": {
        "norad_id": 41335,
        "name": "SENTINEL-3A",
        "group": "resource",
        "lat": -76.7196825194872,
        "lon": -171.23943953805414,
        "alt_km": 810.6114834670343,
        "timestamp": "2025-12-09T16:56:36.237449+00:00",
        "meta_object_name": "SENTINEL-3A",
        "meta_object_id": "2016-011A",
        "meta_epoch": "2025-12-09T10:40:47.472096",
        "meta_mean_motion": 14.2674487,
        "meta_eccentricity": 9.55e-05,
        "meta_inclination": 98.6211,
        "meta_ra_of_asc_node": 48.5017,
        "meta_arg_of_pericenter": 93.3111,
        "meta_mean_anomaly": 266.8178,
        "meta_ephemeris_type": 0,
        "meta_classification_type": "U",
        "meta_norad_cat_id": 41335,
        "meta_element_set_no": 999,
        "meta_rev_at_epoch": 51100,
        "meta_bstar": 0.00013555,
        "meta_mean_motion_dot": 2.84e-06,
        "meta_mean_motion_ddot": 0,
        "tle_line1": "1 41335U 16011A   25343.44499389  .00000284  00000+0  13555-3 0  9997",
        "tle_line2": "2 41335  98.6211  48.5017 0000955  93.3111 266.8178 14.26744870511005"
      },
      "geometry": {
        "type": "Point",
        "coordinates": [
          -171.23943953805414,
          -76.7196825194872
        ]
      }
    }
  ]
}